              M50 Cartesian                         J2K Cartesian  
    -----------------------------------       --------------------------------
     X    =        2634535.68                 X    =          880674.10
     Y    =      -16330216.51  feet           Y    =        -4968036.12  meter
     Z    =      -14904751.77                 Z    =        -4538878.66
     XDOT =      22279.567190                 XDOT =        6794.571528
     YDOT =      -5662.462176  feet/sec       YDOT =       -1649.957977  meter/sec
     ZDOT =      10154.889151                 ZDOT =        3128.208107
 
              TDR Cartesian                         TDR Cartesian  
    -----------------------------------       --------------------------------
     X    =       -7946998.11                 X    =        -2422245.02
     Y    =      -14526541.34  feet           Y    =        -4427689.80  meter
     Z    =      -14886006.61                 Z    =        -4537254.82
     XDOT =      12905.069827                 XDOT =        3933.465283
     YDOT =     -17600.191942  feet/sec       YDOT =       -5364.538504  meter/sec
     ZDOT =      10298.524525                 ZDOT =        3138.990275
  
  
    The mean element set is posted at the UTC for which position is
    just north of the next ascending node relative to the above
    vector time
 
 
    TWO LINE MEAN ELEMENT SET
  
    ISS
    1 25544U 98067A   16115.52728964  .00016717  00000-0  10270-3 0  9149
    2 25544  51.6408 325.6872 0001572  47.8245 312.3041 15.54398196 36637
  
  
    Satellite: ISS
    Catalog Number: 25544
    Epoch time:      16115.52728964   =   yrday.fracday
    Element set:     914
    Inclination:       51.6408  deg
    RA of node:       325.6872  deg
    Eccentricity:     .0001572     
    Arg of perigee:    47.8245  deg
    Mean anomaly:     312.3041  deg
    Mean motion:   15.54398196  rev/day
    Decay rate:    1.67170E-04  rev/day^2
    Epoch rev:            3663
    Checksum:              320
 
 
    Coasting Arc #16 (Orbit 3678)
    ---------------------------------------
 
    Vector Time (GMT): 2016/116/12:24:13.979
    Vector Time (MET): N/A
    Weight (LBS)     : 945061.1
 
              M50 Cartesian                         M50 Keplerian  
    -----------------------------------       --------------------------------
     X    =       -2321109.16                 A    =         6783703.26  meter
     Y    =        5419332.95  meter          E    =           .0013657
     Z    =        3345017.90                 I    =           51.41265
     XDOT =      -6098.705185                 Wp   =           86.17982
     YDOT =        266.358541  meter/sec      RA   =          320.10474  deg
     ZDOT =      -4646.120132                 TA   =           54.67166
                                              MA   =           54.54406
                                              Ha   =            220.948  n.mi
                                              Hp   =            213.783
 
              M50 Cartesian                         J2K Cartesian  
    -----------------------------------       --------------------------------
     X    =       -7615187.55                 X    =        -2397785.94
     Y    =       17779963.74  feet           Y    =         5392948.09  meter
     Z    =       10974468.19                 Z    =         3333556.00
     XDOT =     -20008.875279                 XDOT =       -6078.661143
     YDOT =        873.879727  feet/sec       YDOT =         198.270759  meter/sec
     ZDOT =     -15243.176285                 ZDOT =       -4675.697969
 
              TDR Cartesian                         TDR Cartesian  
    -----------------------------------       --------------------------------
     X    =        5268606.00                 X    =         1605871.11
     Y    =       18640636.99  feet           Y    =         5681666.15  meter
     Z    =       10923625.19                 Z    =         3329520.96
     XDOT =     -13528.353916                 XDOT =       -4123.442274
     YDOT =      12865.066579  feet/sec       YDOT =        3921.272293  meter/sec
     ZDOT =     -15371.667547                 ZDOT =       -4685.284268
  
  
    The mean element set is posted at the UTC for which position is
    just north of the next ascending node relative to the above
    vector time
 
 
    TWO LINE MEAN ELEMENT SET
  
    ISS
    1 25544U 98067A   16116.55594064  .00016717  00000-0  10270-3 0  9156
    2 25544  51.6413 320.5567 0001544  43.1304 316.9970 15.54446093 36790
  
  
    Satellite: ISS
    Catalog Number: 25544
    Epoch time:      16116.55594064   =   yrday.fracday
    Element set:     915
    Inclination:       51.6413  deg
    RA of node:       320.5567  deg
    Eccentricity:     .0001544     
    Arg of perigee:    43.1304  deg
    Mean anomaly:     316.9970  deg
    Mean motion:   15.54446093  rev/day
    Decay rate:    1.67170E-04  rev/day^2
    Epoch rev:            3679
    Checksum:              310
 
             </PRE>
           </TD>
        </TR>
    </TABLE>
    
    <table align="center" border="0" width="600" cellpadding="0" cellspacing="0">
      <tr>
        <td align="center" valign="top"><hr size="1" width="600" noshade="noshade" />
        <font face="Arial,helvetica" size="-2">Curator: <a href="/cgi-bin/comment.cgi?jsc-hsfwebma@mail.nasa.gov">Kim 
          Dismukes</a> | Responsible NASA Official: <a href="/cgi-bin/comment.cgi?jsc-hsfwebma@mail.nasa.gov">Amiko Kauderer</a> | Updated: 06/08/2009<br />
        <a href="http://www.nasa.gov/about/highlights/HP_Privacy.html">Privacy Policy and Important Notices</a></font></td>
      </tr>
    </table>
    </body>
    </html>
